IRIDIUM 166             
1 43570U 18061B   25080.49734092  .00000728  00000+0  25279-3 0  9992
2 43570  86.3921 245.8585 0002151  95.4704 264.6737 14.34219459348513
IRIDIUM 158             
1 43571U 18061C   25080.53539844  .00000029  00000+0  33422-5 0  9991
2 43571  86.3934 245.8545 0002158  88.7386 271.4057 14.34217628348496
IRIDIUM 165             
1 43572U 18061D   25080.56076763  .00000058  00000+0  13672-4 0  9997
2 43572  86.3936 245.8815 0001954  97.6645 262.4773 14.34217886348513
IRIDIUM 155             
1 43573U 18061E   25080.52271313  .00000786  00000+0  27364-3 0  9992
2 43573  86.3929 245.7888 0002025  84.5752 275.5675 14.34215093348478
IRIDIUM 154             
1 43574U 18061F   25080.85252784  .00000811  00000+0  28263-3 0  9998
2 43574  86.3923 245.7602 0002001  84.4332 275.7092 14.34216680348573
IRIDIUM 163             
1 43575U 18061G   25080.55442478  .00000978  00000+0  34215-3 0  9995
2 43575  86.3932 245.8165 0002175  91.3672 268.7773 14.34214464348504
IRIDIUM 156             
1 43576U 18061H   25080.52905556  .00000743  00000+0  25809-3 0  9993
2 43576  86.3933 245.8336 0001805  76.1538 283.9858 14.34216737348493
IRIDIUM 164             
1 43577U 18061J   25080.51002729 -.00000019  00000+0 -14019-4 0  9993
2 43577  86.3937 245.8755 0001888  99.5881 260.5529 14.34217300348532
